{"type": "FeatureCollection", "features": [{"type": "Feature", "geometry": {"type": "Point", "coordinates": [131.7488356, 42.9877812]}, "properties": {"name": "мыс Рогозина", "name:en": "Rogozin mis", "natural": "cape", "anchor": "left"}}, {"type": "Feature", "geometry": {"type": "Point", "coordinates": [131.9328132, 42.9990989]}, "properties": {"name": "мыс Ахлёстышева", "name:ru": "мыс Ахлёстышева", "natural": "cape", "anchor": "left"}}, {"type": "Feature", "geometry": {"type": "Point", "coordinates": [131.906958, 42.9583185]}, "properties": {"name": "мыс Вятлина", "name:ru": "мыс Вятлина", "natural": "cape", "website": "https://idilesom.com/prim/places/217", "anchor": "left"}}, {"type": "Feature", "geometry": {"type": "Point", "coordinates": [131.8706545, 42.94492]}, "properties": {"name": "мыс Тобизина (Пещерный)", "name:zh": "葫芦崴", "natural": "cape", "source": "knowleadge", "website": "https://idilesom.com/prim/places/214", "wikidata": "Q26721346", "wikipedia": "ru:Мыс Тобизина", "anchor": "left"}}, {"type": "Feature", "geometry": {"type": "Point", "coordinates": [131.8699973, 43.1134157]}, "properties": {"name": "мыс Бурный", "name:en": "Burny Cape", "name:ru": "мыс Бурный", "natural": "cape", "wikidata": "Q37879793", "anchor": "bottom-right"}}, {"type": "Feature", "geometry": {"type": "Point", "coordinates": [131.8891066, 43.0087342]}, "properties": {"name": "мыс Тупой", "name:ru": "мыс Тупой", "natural": "cape", "anchor": "bottom-right"}}, {"type": "Feature", "geometry": {"type": "Point", "coordinates": [131.8914139, 43.0044084]}, "properties": {"name": "мыс Узкий", "name:ru": "мыс Узкий", "natural": "cape", "anchor": "left"}}, {"type": "Feature", "geometry": {"type": "Point", "coordinates": [131.8853893, 43.0132649]}, "properties": {"name": "мыс Мелководный", "name:ru": "мыс Мелководный", "natural": "cape", "anchor": "left"}}, {"type": "Feature", "geometry": {"type": "Point", "coordinates": [131.8802692, 43.0172345]}, "properties": {"name": "мыс Огородный", "name:ru": "мыс Огородный", "natural": "cape", "anchor": "left"}}, {"type": "Feature", "geometry": {"type": "Point", "coordinates": [131.8682701, 43.0265294]}, "properties": {"name": "мыс Безопасный", "name:ru": "мыс Безопасный", "natural": "cape", "anchor": "left"}}, {"type": "Feature", "geometry": {"type": "Point", "coordinates": [131.8054631, 43.0624075]}, "properties": {"name": "мыс Старицкого", "natural": "cape", "anchor": "left"}}, {"type": "Feature", "geometry": {"type": "Point", "coordinates": [131.9626829, 43.0575849]}, "properties": {"name": "мыс Басаргина", "name:en": "Cape Basargin", "name:ru": "мыс Басаргина", "natural": "cape", "anchor": "left"}}, {"type": "Feature", "geometry": {"type": "Point", "coordinates": [131.8269438, 43.0580512]}, "properties": {"name": "мыс Польза", "natural": "cape", "anchor": "left"}}, {"type": "Feature", "geometry": {"type": "Point", "coordinates": [131.8723964, 42.9670313]}, "properties": {"name": "мыс Красный", "natural": "cape", "anchor": "bottom-right"}}, {"type": "Feature", "geometry": {"type": "Point", "coordinates": [131.880316, 43.0860774]}, "properties": {"name": "мыс Голдобина", "name:en": "Cape Goldobin", "name:ru": "мыс Голдобина", "natural": "cape", "anchor": "top-right"}}, {"type": "Feature", "geometry": {"type": "Point", "coordinates": [131.8762651, 43.126773]}, "properties": {"name": "мыс Боброва", "natural": "cape", "anchor": "bottom-right"}}, {"type": "Feature", "geometry": {"type": "Point", "coordinates": [131.8273817, 43.0481512]}, "properties": {"name": "мыс Ислямова", "natural": "cape", "anchor": "left"}}, {"type": "Feature", "geometry": {"type": "Point", "coordinates": [131.757287, 43.0044735]}, "properties": {"name": "мыс Васильева", "natural": "cape", "anchor": "left"}}, {"type": "Feature", "geometry": {"type": "Point", "coordinates": [131.8239306, 43.0658256]}, "properties": {"name": "мыс Елагина", "natural": "cape", "anchor": "left"}}, {"type": "Feature", "geometry": {"type": "Point", "coordinates": [131.8234514, 43.060017]}, "properties": {"name": "мыс Крутой", "natural": "cape", "anchor": "left"}}, {"type": "Feature", "geometry": {"type": "Point", "coordinates": [131.8822922, 43.0991549]}, "properties": {"name": "мыс Чуркина", "name:en": "Cape Churkin", "name:ru": "мыс Чуркина", "natural": "cape", "anchor": "right"}}, {"type": "Feature", "geometry": {"type": "Point", "coordinates": [131.9211902, 43.2039476]}, "properties": {"name": "мыс Красный", "natural": "cape", "anchor": "bottom-right"}}, {"type": "Feature", "geometry": {"type": "Point", "coordinates": [131.7230116, 42.9917607]}, "properties": {"name": "мыс Марковского", "natural": "cape", "anchor": "bottom-right"}}, {"type": "Feature", "geometry": {"type": "Point", "coordinates": [131.8893954, 43.0825564]}, "properties": {"name": "мыс Абросимова", "name:en": "Cape Abrosimov", "name:ru": "мыс Абросимова", "natural": "cape", "anchor": "right"}}, {"type": "Feature", "geometry": {"type": "Point", "coordinates": [131.9016019, 43.1490389]}, "properties": {"name": "мыс Калузина", "natural": "cape", "anchor": "right"}}, {"type": "Feature", "geometry": {"type": "Point", "coordinates": [131.8406947, 43.0673939]}, "properties": {"name": "мыс Безымянный", "natural": "cape", "anchor": "bottom-right"}}, {"type": "Feature", "geometry": {"type": "Point", "coordinates": [131.7917175, 43.0517884]}, "properties": {"name": "мыс Створный", "natural": "cape", "anchor": "left"}}, {"type": "Feature", "geometry": {"type": "Point", "coordinates": [131.8424338, 43.0818991]}, "properties": {"name": "мыс Токаревского", "name:en": "Cape Tokarzewski", "name:ru": "мыс Токаревского", "natural": "cape", "anchor": "right"}}, {"type": "Feature", "geometry": {"type": "Point", "coordinates": [132.0052509, 43.250554]}, "properties": {"name": "мыс Клыкова", "natural": "cape", "anchor": "right"}}, {"type": "Feature", "geometry": {"type": "Point", "coordinates": [131.9159163, 43.0304377]}, "properties": {"name": "мыс Балка", "natural": "cape", "anchor": "left"}}, {"type": "Feature", "geometry": {"type": "Point", "coordinates": [131.737139, 43.1600534]}, "properties": {"name": "мыс Ограновича", "natural": "cape", "anchor": "left"}}, {"type": "Feature", "geometry": {"type": "Point", "coordinates": [131.9450313, 43.0717383]}, "properties": {"name": "мыс Жданко", "name:en": "Cape Zhdanko", "name:ru": "мыс Жданко", "natural": "cape", "anchor": "left"}}, {"type": "Feature", "geometry": {"type": "Point", "coordinates": [131.8843807, 43.1337327]}, "properties": {"name": "мыс Кузнецова", "name:en": "Cape Kuznetsov", "name:ru": "мыс Кузнецова", "natural": "cape", "anchor": "right"}}, {"type": "Feature", "geometry": {"type": "Point", "coordinates": [132.0023738, 43.2619408]}, "properties": {"name": "мыс Марковского", "natural": "cape", "anchor": "bottom-right"}}, {"type": "Feature", "geometry": {"type": "Point", "coordinates": [131.9400632, 43.2142204]}, "properties": {"name": "мыс Тупой", "natural": "cape", "anchor": "bottom-right"}}, {"type": "Feature", "geometry": {"type": "Point", "coordinates": [131.9305894, 43.025082]}, "properties": {"name": "мыс Житкова", "natural": "cape", "anchor": "left"}}, {"type": "Feature", "geometry": {"type": "Point", "coordinates": [131.7410166, 42.9824498]}, "properties": {"name": "мыс Дарагана", "natural": "cape", "anchor": "left"}}, {"type": "Feature", "geometry": {"type": "Point", "coordinates": [132.0665317, 43.3113444]}, "properties": {"name": "мыс Безымянный", "natural": "cape", "anchor": "bottom-right"}}, {"type": "Feature", "geometry": {"type": "Point", "coordinates": [131.7908438, 43.0441292]}, "properties": {"name": "мыс Игнатьева", "natural": "cape", "anchor": "left"}}, {"type": "Feature", "geometry": {"type": "Point", "coordinates": [131.8478473, 43.0540489]}, "properties": {"name": "мыс Ермолаева", "natural": "cape", "anchor": "left"}}, {"type": "Feature", "geometry": {"type": "Point", "coordinates": [131.8583076, 43.0983072]}, "properties": {"name": "мыс Щетининой", "name:en": "Cape Shchetinina", "name:ru": "мыс Щетининой", "natural": "cape", "anchor": "right"}}, {"type": "Feature", "geometry": {"type": "Point", "coordinates": [131.8968805, 43.172852]}, "properties": {"name": "мыс Фирсова", "natural": "cape", "anchor": "bottom-right"}}, {"type": "Feature", "geometry": {"type": "Point", "coordinates": [131.8470526, 43.0868695]}, "properties": {"name": "мыс Россета", "name:en": "Cape Rossett", "name:ru": "мыс Россета", "natural": "cape", "anchor": "bottom-right"}}, {"type": "Feature", "geometry": {"type": "Point", "coordinates": [132.0661458, 43.1504258]}, "properties": {"name": "мыс Трёх Камней (Три Брата)", "natural": "cape", "anchor": "left"}}, {"type": "Feature", "geometry": {"type": "Point", "coordinates": [132.1699805, 43.206343]}, "properties": {"name": "мыс Энгельма", "natural": "cape", "anchor": "left"}}, {"type": "Feature", "geometry": {"type": "Point", "coordinates": [131.8732523, 43.0967118]}, "properties": {"name": "мыс Эгершельда", "name:en": "Cape Jägeskjöld", "name:ru": "мыс Эгершельда", "natural": "cape", "anchor": "left"}}, {"type": "Feature", "geometry": {"type": "Point", "coordinates": [131.891953, 43.0625962]}, "properties": {"name": "мыс Поспелова", "natural": "cape", "anchor": "left"}}, {"type": "Feature", "geometry": {"type": "Point", "coordinates": [131.7072003, 42.9783307]}, "properties": {"name": "мыс Низкий", "natural": "cape", "anchor": "left"}}, {"type": "Feature", "geometry": {"type": "Point", "coordinates": [131.7618847, 42.9618825]}, "properties": {"name": "мыс Проходной", "natural": "cape", "anchor": "left"}}, {"type": "Feature", "geometry": {"type": "Point", "coordinates": [131.8591888, 43.0391069]}, "properties": {"name": "мыс Шигина", "natural": "cape", "anchor": "left"}}, {"type": "Feature", "geometry": {"type": "Point", "coordinates": [131.9023397, 43.0573841]}, "properties": {"name": "мыс Новосильского", "natural": "cape", "anchor": "left"}}, {"type": "Feature", "geometry": {"type": "Point", "coordinates": [131.7779447, 43.0188341]}, "properties": {"name": "мыс Таран", "natural": "cape", "anchor": "left"}}, {"type": "Feature", "geometry": {"type": "Point", "coordinates": [131.9083185, 43.1876122]}, "properties": {"name": "мыс Грозный", "natural": "cape", "anchor": "top-right"}}, {"type": "Feature", "geometry": {"type": "Point", "coordinates": [131.8891076, 42.9599287]}, "properties": {"name": "мыс Шмидта", "natural": "cape", "anchor": "left"}}, {"type": "Feature", "geometry": {"type": "Point", "coordinates": [131.7883197, 42.999645]}, "properties": {"name": "мыс Гацкевича", "natural": "cape", "anchor": "left"}}, {"type": "Feature", "geometry": {"type": "Point", "coordinates": [131.878826, 43.088729]}, "properties": {"name": "мыс Клета", "name:en": "Cape Klett", "name:ru": "мыс Клета", "natural": "cape", "anchor": "right"}}, {"type": "Feature", "geometry": {"type": "Point", "coordinates": [131.9879468, 43.234357]}, "properties": {"name": "мыс Дальний", "natural": "cape", "anchor": "bottom-left"}}, {"type": "Feature", "geometry": {"type": "Point", "coordinates": [131.7653448, 43.1962922]}, "properties": {"name": "мыс Чихачева", "natural": "cape", "anchor": "left"}}, {"type": "Feature", "geometry": {"type": "Point", "coordinates": [131.9085532, 43.0776607]}, "properties": {"name": "мыс Романова", "natural": "cape", "anchor": "left"}}, {"type": "Feature", "geometry": {"type": "Point", "coordinates": [131.8911903, 43.140473]}, "properties": {"name": "мыс Лагерный", "natural": "cape", "anchor": "bottom-right"}}, {"type": "Feature", "geometry": {"type": "Point", "coordinates": [131.7816156, 43.0024152]}, "properties": {"name": "мыс Песчаный", "natural": "cape", "anchor": "left"}}, {"type": "Feature", "geometry": {"type": "Point", "coordinates": [131.7775104, 43.1798518]}, "properties": {"name": "мыс Песчаный", "natural": "cape", "anchor": "left"}}, {"type": "Feature", "geometry": {"type": "Point", "coordinates": [131.7805527, 43.0270572]}, "properties": {"name": "мыс Половцева", "natural": "cape", "anchor": "left"}}, {"type": "Feature", "geometry": {"type": "Point", "coordinates": [131.8548064, 43.0807568]}, "properties": {"name": "мыс Тигровый", "natural": "cape", "anchor": "left"}}, {"type": "Feature", "geometry": {"type": "Point", "coordinates": [131.7331436, 42.9936322]}, "properties": {"name": "мыс Птичий", "natural": "cape", "anchor": "left"}}, {"type": "Feature", "geometry": {"type": "Point", "coordinates": [131.8996951, 43.077137]}, "properties": {"name": "мыс Острый", "natural": "cape", "anchor": "top-right"}}, {"type": "Feature", "geometry": {"type": "Point", "coordinates": [131.7873381, 43.0310339]}, "properties": {"name": "мыс Михайловского", "natural": "cape", "anchor": "left"}}, {"type": "Feature", "geometry": {"type": "Point", "coordinates": [131.9265784, 43.0649359]}, "properties": {"name": "мыс Иродова", "name:en": "Cape Irodov", "name:ru": "мыс Иродова", "natural": "cape", "anchor": "left"}}, {"type": "Feature", "geometry": {"type": "Point", "coordinates": [131.8609134, 43.1045338]}, "properties": {"name": "мыс Купера", "name:en": "Cape Cooper", "name:ru": "мыс Купера", "natural": "cape", "anchor": "bottom-right"}}, {"type": "Feature", "geometry": {"type": "Point", "coordinates": [131.7310305, 42.9284439]}, "properties": {"name": "мыс Ликандера", "natural": "cape", "anchor": "left"}}, {"type": "Feature", "geometry": {"type": "Point", "coordinates": [131.8368241, 43.0580863]}, "properties": {"name": "мыс Артиллерийский", "natural": "cape", "anchor": "left"}}, {"type": "Feature", "geometry": {"type": "Point", "coordinates": [131.9151897, 43.0727773]}, "properties": {"name": "мыс Артур", "natural": "cape", "anchor": "bottom-right"}}, {"type": "Feature", "geometry": {"type": "Point", "coordinates": [132.2312437, 43.2296778]}, "properties": {"name": "мыс Вилкова", "natural": "cape", "anchor": "left"}}, {"type": "Feature", "geometry": {"type": "Point", "coordinates": [131.9373844, 43.0202661]}, "properties": {"name": "мыс Каразина", "natural": "cape", "anchor": "left"}}, {"type": "Feature", "geometry": {"type": "Point", "coordinates": [131.7126449, 42.9521271]}, "properties": {"name": "мыс Андреева", "natural": "cape", "anchor": "left"}}, {"type": "Feature", "geometry": {"type": "Point", "coordinates": [131.7933596, 43.0557954]}, "properties": {"name": "мыс Чернявского", "natural": "cape", "anchor": "left"}}, {"type": "Feature", "geometry": {"type": "Point", "coordinates": [131.787738, 42.9801943]}, "properties": {"name": "мыс Иванцова", "natural": "cape", "anchor": "left"}}, {"type": "Feature", "geometry": {"type": "Point", "coordinates": [131.9155659, 43.0673453]}, "properties": {"name": "мыс Назимова", "name:en": "Cape Nazimov", "name:ru": "мыс Назимова", "natural": "cape", "anchor": "top-right"}}, {"type": "Feature", "geometry": {"type": "Point", "coordinates": [131.7545053, 43.0013346]}, "properties": {"name": "мыс Камень", "natural": "cape", "anchor": "left"}}, {"type": "Feature", "geometry": {"type": "Point", "coordinates": [131.8283474, 43.0685615]}, "properties": {"name": "мыс Ларионова", "natural": "cape", "anchor": "left"}}, {"type": "Feature", "geometry": {"type": "Point", "coordinates": [131.7501927, 42.9956234]}, "properties": {"name": "мыс Средний", "natural": "cape", "anchor": "left"}}, {"type": "Feature", "geometry": {"type": "Point", "coordinates": [131.7942138, 43.035186]}, "properties": {"name": "мыс Кошелева", "natural": "cape", "anchor": "left"}}, {"type": "Feature", "geometry": {"type": "Point", "coordinates": [132.0151787, 43.2685802]}, "properties": {"name": "мыс Топкий", "natural": "cape", "anchor": "left"}}, {"type": "Feature", "geometry": {"type": "Point", "coordinates": [131.7520255, 42.9902497]}, "properties": {"name": "мыс Трапезникова", "natural": "cape", "anchor": "left"}}, {"type": "Feature", "geometry": {"type": "Point", "coordinates": [131.822961, 42.9321144]}, "properties": {"name": "Маячный мыс", "name:en": "Mayachny Cape", "name:ru": "Маячный мыс", "natural": "cape", "anchor": "left"}}, {"type": "Feature", "geometry": {"type": "Point", "coordinates": [131.8996506, 42.9916032]}, "properties": {"name": "мыс Конечный", "natural": "cape", "anchor": "left"}}, {"type": "Feature", "geometry": {"type": "Point", "coordinates": [131.8976007, 42.995839]}, "properties": {"name": "мыс Фета", "natural": "cape", "anchor": "left"}}, {"type": "Feature", "geometry": {"type": "Point", "coordinates": [131.8884975, 42.9968511]}, "properties": {"name": "мыс Полонского", "name:ru": "мыс Полонского", "natural": "cape", "anchor": "left"}}, {"type": "Feature", "geometry": {"type": "Point", "coordinates": [131.8649467, 43.0384817]}, "properties": {"name": "мыс Доронина", "natural": "cape", "anchor": "left"}}, {"type": "Feature", "geometry": {"type": "Point", "coordinates": [132.0535894, 43.2981832]}, "properties": {"name": "мыс Вязкий", "natural": "cape", "anchor": "bottom-right"}}, {"type": "Feature", "geometry": {"type": "Point", "coordinates": [132.0353678, 43.2743757]}, "properties": {"name": "мыс Спорный", "natural": "cape", "anchor": "bottom-right"}}, {"type": "Feature", "geometry": {"type": "Point", "coordinates": [132.1128757, 43.1867938]}, "properties": {"name": "мыс Зеленый (Лучинза)", "natural": "cape", "anchor": "left"}}, {"type": "Feature", "geometry": {"type": "Point", "coordinates": [132.1327791, 43.194745]}, "properties": {"name": "мыс Крутой", "natural": "cape", "anchor": "left"}}, {"type": "Feature", "geometry": {"type": "Point", "coordinates": [131.8725014, 43.0192468]}, "properties": {"name": "мыс Экипажный", "natural": "cape", "anchor": "left"}}, {"type": "Feature", "geometry": {"type": "Point", "coordinates": [132.0096479, 43.2479501]}, "properties": {"name": "мыс Соловьёва", "natural": "cape", "anchor": "top-right"}}, {"type": "Feature", "geometry": {"type": "Point", "coordinates": [131.7090259, 42.9207859]}, "properties": {"name": "мыс Жирмунского", "natural": "cape", "anchor": "left"}}, {"type": "Feature", "geometry": {"type": "Point", "coordinates": [131.7119585, 42.9028321]}, "properties": {"name": "мыс Касьянова", "natural": "cape", "anchor": "left"}}, {"type": "Feature", "geometry": {"type": "Point", "coordinates": [131.7246223, 42.898295]}, "properties": {"name": "мыс Елякова", "natural": "cape", "anchor": "left"}}, {"type": "Feature", "geometry": {"type": "Point", "coordinates": [131.7449372, 42.9041594]}, "properties": {"name": "мыс Ильичёва", "natural": "cape", "anchor": "left"}}, {"type": "Feature", "geometry": {"type": "Point", "coordinates": [131.8321718, 42.9552007]}, "properties": {"name": "мыс Забытый", "natural": "cape", "anchor": "left"}}, {"type": "Feature", "geometry": {"type": "Point", "coordinates": [131.9245791, 43.0116669]}, "properties": {"name": "мыс Мушкетова", "natural": "cape", "anchor": "left"}}, {"type": "Feature", "geometry": {"type": "Point", "coordinates": [131.8993288, 43.0487532]}, "properties": {"name": "мыс 1-й Утёс", "natural": "cape", "anchor": "left"}}, {"type": "Feature", "geometry": {"type": "Point", "coordinates": [131.8942651, 43.0370205]}, "properties": {"name": "мыс Маргаритова (2-й Утёс)", "natural": "cape", "anchor": "left"}}, {"type": "Feature", "geometry": {"type": "Point", "coordinates": [131.9325444, 42.9927023]}, "properties": {"name": "мыс Черского", "name:ru": "мыс Черского", "natural": "cape", "anchor": "left"}}, {"type": "Feature", "geometry": {"type": "Point", "coordinates": [131.9283986, 43.001493]}, "properties": {"name": "мыс Пологий", "natural": "cape", "anchor": "left"}}, {"type": "Feature", "geometry": {"type": "Point", "coordinates": [131.830985, 43.0589849]}, "properties": {"name": "мыс Иностранцева", "natural": "cape", "anchor": "left"}}, {"type": "Feature", "geometry": {"type": "Point", "coordinates": [132.038785, 43.1227963]}, "properties": {"name": "мыс Боголюбова", "natural": "cape", "anchor": "left"}}, {"type": "Feature", "geometry": {"type": "Point", "coordinates": [132.0339732, 43.1191301]}, "properties": {"name": "мыс Эдельштейна", "natural": "cape", "anchor": "left"}}, {"type": "Feature", "geometry": {"type": "Point", "coordinates": [132.0308326, 43.1164168]}, "properties": {"name": "мыс Субботина", "natural": "cape", "anchor": "left"}}, {"type": "Feature", "geometry": {"type": "Point", "coordinates": [132.0203996, 43.113114]}, "properties": {"name": "мыс Анерта", "natural": "cape", "anchor": "left"}}]}